{
    "links": {
        "self": "http://www.neowsapp.com/rest/v1/neo/3781976?api_key=iIulBulltgU6a56xZRHN4H3l9WmuAYTsLGpBGhQ2"
    },
    "id": "3781976",
    "neo_reference_id": "3781976",
    "name": "(2017 SX19)",
    "designation": "2017 SX19",
    "nasa_jpl_url": "http://ssd.jpl.nasa.gov/sbdb.cgi?sstr=3781976",
    "absolute_magnitude_h": 27.0,
    "estimated_diameter": {
        "kilometers": {
            "estimated_diameter_min": 0.0105816886,
            "estimated_diameter_max": 0.023661375
        },
        "meters": {
            "estimated_diameter_min": 10.5816885933,
            "estimated_diameter_max": 23.6613750114
        },
        "miles": {
            "estimated_diameter_min": 0.0065751544,
            "estimated_diameter_max": 0.0147024923
        },
        "feet": {
            "estimated_diameter_min": 34.7168272045,
            "estimated_diameter_max": 77.6291855923
        }
    },
    "is_potentially_hazardous_asteroid": false,
    "close_approach_data": [
        {
            "close_approach_date": "2012-08-24",
            "close_approach_date_full": "2012-Aug-24 15:04",
            "epoch_date_close_approach": 1345820640000,
            "relative_velocity": {
                "kilometers_per_second": "11.3152854131",
                "kilometers_per_hour": "40735.0274871114",
                "miles_per_hour": "25311.1619405332"
            },
            "miss_distance": {
                "astronomical": "0.2923493303",
                "lunar": "113.7238894867",
                "kilometers": "43734837.108806461",
                "miles": "27175567.6315967218"
            },
            "orbiting_body": "Earth"
        },
        {
            "close_approach_date": "2017-09-25",
            "close_approach_date_full": "2017-Sep-25 12:53",
            "epoch_date_close_approach": 1506343980000,
            "relative_velocity": {
                "kilometers_per_second": "4.9580062276",
                "kilometers_per_hour": "17848.8224194584",
                "miles_per_hour": "11090.5641305796"
            },
            "miss_distance": {
                "astronomical": "0.0457651977",
                "lunar": "17.8026619053",
                "kilometers": "6846376.096048899",
                "miles": "4254140.8389528462"
            },
            "orbiting_body": "Earth"
        },
        {
            "close_approach_date": "2022-10-27",
            "close_approach_date_full": "2022-Oct-27 21:52",
            "epoch_date_close_approach": 1666907520000,
            "relative_velocity": {
                "kilometers_per_second": "12.0854889109",
                "kilometers_per_hour": "43507.7600791126",
                "miles_per_hour": "27034.030144713"
            },
            "miss_distance": {
                "astronomical": "0.3303958653",
                "lunar": "128.5239916017",
                "kilometers": "49426517.705686911",
                "miles": "30712213.9580289318"
            },
            "orbiting_body": "Earth"
        }
    ],
    "orbital_data": {
        "orbit_id": "2",
        "orbit_determination_date": "2017-12-28 06:24:15",
        "first_observation_date": "2017-09-21",
        "last_observation_date": "2017-09-30",
        "data_arc_in_days": 9,
        "observations_used": 20,
        "orbit_uncertainty": "8",
        "minimum_orbit_intersection": ".0448565",
        "jupiter_tisserand_invariant": "4.675",
        "epoch_osculation": "2458023.5",
        "eccentricity": ".2606107424153452",
        "semi_major_axis": "1.415319119682318",
        "inclination": "7.336709693089756",
        "ascending_node_longitude": "359.925554070711",
        "orbital_period": "615.0068985871421",
        "perihelion_distance": "1.046471753147276",
        "perihelion_argument": "7.881291613736531",
        "aphelion_distance": "1.784166486217359",
        "perihelion_time": "2458027.683106314042",
        "mean_anomaly": "357.5513798682345",
        "mean_motion": ".5853592875576347",
        "equinox": "J2000",
        "orbit_class": {
            "orbit_class_type": "AMO",
            "orbit_class_description": "Near-Earth asteroid orbits similar to that of 1221 Amor",
            "orbit_class_range": "1.017 AU < q (perihelion) < 1.3 AU"
        }
    },
    "is_sentry_object": false
}